1 99999U 24001A   25176.00000000  .00000000  00000-0  00000-0 0  0001
2 99999  51.6000   0.0000 0001000   0.0000   0.0000 13.7187058800001 
